{"type": "FeatureCollection", "features": [ {"type": "Feature", "properties": {"norad_id": 39620, "name": "COSMOS 2492 (754)", "group": "gnss", "lat": 57.967097470463706, "lon": 92.9339833148101, "alt_km": 19157.20652483979, "timestamp": "2025-12-21T03:56:51.082417+00:00", "meta": {"OBJECT_NAME": "COSMOS 2492 (754)", "OBJECT_ID": "2014-012A", "EPOCH": "2025-12-20T01:56:38.014656", "MEAN_MOTION": 2.13103387, "ECCENTRICITY": 0.00142311, "INCLINATION": 65.4033, "RA_OF_ASC_NODE": 320.0211, "ARG_OF_PERICENTER": 312.7815, "MEAN_ANOMALY": 47.0902, "EPHEMERIS_TYPE": 0, "CLASSIFICATION_TYPE": "U", "NORAD_CAT_ID": 39620, "ELEMENT_SET_NO": 999, "REV_AT_EPOCH": 9142, "BSTAR": 0, "MEAN_MOTION_DOT": -5.4e-07, "MEAN_MOTION_DDOT": 0}, "tle": {"line1": "1 39620U 14012A   25354.08099554 -.00000054  00000+0  00000+0 0  9995", "line2": "2 39620  65.4033 320.0211 0014231 312.7815  47.0902  2.13103387 91426"}}, "geometry": {"type": "Point", "coordinates": [92.9339833148101, 57.967097470463706]}}, {"type": "Feature", "properties": {"norad_id": 39635, "name": "IRNSS-1B", "group": "gnss", "lat": -17.84530741664653, "lon": -151.54523853897385, "alt_km": 35764.29535053483, "timestamp": "2025-12-21T03:56:51.082427+00:00", "meta": {"OBJECT_NAME": "IRNSS-1B", "OBJECT_ID": "2014-017A", "EPOCH": "2025-12-20T18:37:43.502880", "MEAN_MOTION": 1.00271109, "ECCENTRICITY": 0.0018682, "INCLINATION": 29.2525, "RA_OF_ASC_NODE": 243.4669, "ARG_OF_PERICENTER": 249.4131, "MEAN_ANOMALY": 291.5281, "EPHEMERIS_TYPE": 0, "CLASSIFICATION_TYPE": "U", "NORAD_CAT_ID": 39635, "ELEMENT_SET_NO": 999, "REV_AT_EPOCH": 4300, "BSTAR": 0, "MEAN_MOTION_DOT": 1.52e-06, "MEAN_MOTION_DDOT": 0}, "tle": {"line1": "1 39635U 14017A   25354.77619795  .00000152  00000+0  00000+0 0  9995", "line2": "2 39635  29.2525 243.4669 0018682 249.4131 291.5281  1.00271109 43002"}}, "geometry": {"type": "Point", "coordinates": [-151.54523853897385, -17.84530741664653]}}, {"type": "Feature", "properties": {"norad_id": 39727, "name": "LUCH 5V (SDCM/PRN 141)", "group": "gnss", "lat": 0.5992053497934486, "lon": -116.11083386347916, "alt_km": 35772.8716624329, "timestamp": "2025-12-21T03:56:51.082439+00:00", "meta": {"OBJECT_NAME": "LUCH 5V (SDCM/PRN 141)", "OBJECT_ID": "2014-023A", "EPOCH": "2025-12-20T18:56:58.267392", "MEAN_MOTION": 1.0027596, "ECCENTRICITY": 0.0003727, "INCLINATION": 4.6888, "RA_OF_ASC_NODE": 71.4751, "ARG_OF_PERICENTER": 213.0255, "MEAN_ANOMALY": 184.0483, "EPHEMERIS_TYPE": 0, "CLASSIFICATION_TYPE": "U", "NORAD_CAT_ID": 39727, "ELEMENT_SET_NO": 999, "REV_AT_EPOCH": 4257, "BSTAR": 0, "MEAN_MOTION_DOT": -2.49e-06, "MEAN_MOTION_DDOT": 0}, "tle": {"line1": "1 39727U 14023A   25354.78956328 -.00000249  00000+0  00000+0 0  9999", "line2": "2 39727   4.6888  71.4751 0003727 213.0255 184.0483  1.00275960 42572"}}, "geometry": {"type": "Point", "coordinates": [-116.11083386347916, 0.5992053497934486]}}, {"type": "Feature", "properties": {"norad_id": 39741, "name": "GPS BIIF-6  (PRN 06)", "group": "gnss", "lat": 32.25466108969969, "lon": 133.81308303033111, "alt_km": 20283.113372898137, "timestamp": "2025-12-21T03:56:51.082450+00:00", "meta": {"OBJECT_NAME": "GPS BIIF-6  (PRN 06)", "OBJECT_ID": "2014-026A", "EPOCH": "2025-12-18T23:24:45.525888", "MEAN_MOTION": 2.00561009, "ECCENTRICITY": 0.00393411, "INCLINATION": 56.5812, "RA_OF_ASC_NODE": 338.5339, "ARG_OF_PERICENTER": 319.0443, "MEAN_ANOMALY": 40.6665, "EPHEMERIS_TYPE": 0, "CLASSIFICATION_TYPE": "U", "NORAD_CAT_ID": 39741, "ELEMENT_SET_NO": 999, "REV_AT_EPOCH": 8492, "BSTAR": 0, "MEAN_MOTION_DOT": -8.1e-07, "MEAN_MOTION_DDOT": 0}, "tle": {"line1": "1 39741U 14026A   25352.97552692 -.00000081  00000+0  00000+0 0  9997", "line2": "2 39741  56.5812 338.5339 0039341 319.0443  40.6665  2.00561009 84924"}}, "geometry": {"type": "Point", "coordinates": [133.81308303033111, 32.25466108969969]}}, {"type": "Feature", "properties": {"norad_id": 40001, "name": "COSMOS 2500 (755)", "group": "gnss", "lat": -18.817769831968825, "lon": -49.273975331202394, "alt_km": 19142.239166333962, "timestamp": "2025-12-21T03:56:51.082460+00:00", "meta": {"OBJECT_NAME": "COSMOS 2500 (755)", "OBJECT_ID": "2014-032A", "EPOCH": "2025-12-20T06:04:27.939360", "MEAN_MOTION": 2.13106249, "ECCENTRICITY": 0.00077498, "INCLINATION": 65.339, "RA_OF_ASC_NODE": 319.7771, "ARG_OF_PERICENTER": 219.4032, "MEAN_ANOMALY": 140.5324, "EPHEMERIS_TYPE": 0, "CLASSIFICATION_TYPE": "U", "NORAD_CAT_ID": 40001, "ELEMENT_SET_NO": 999, "REV_AT_EPOCH": 8964, "BSTAR": 0, "MEAN_MOTION_DOT": -5.3e-07, "MEAN_MOTION_DDOT": 0}, "tle": {"line1": "1 40001U 14032A   25354.25310115 -.00000053  00000+0  00000+0 0  9999", "line2": "2 40001  65.3390 319.7771 0007749 219.4032 140.5324  2.13106249 89640"}}, "geometry": {"type": "Point", "coordinates": [-49.273975331202394, -18.817769831968825]}}, {"type": "Feature", "properties": {"norad_id": 40105, "name": "GPS BIIF-7  (PRN 09)", "group": "gnss", "lat": 53.42894137684951, "lon": 164.76969631984082, "alt_km": 20111.18755137751, "timestamp": "2025-12-21T03:56:51.082470+00:00", "meta": {"OBJECT_NAME": "GPS BIIF-7  (PRN 09)", "OBJECT_ID": "2014-045A", "EPOCH": "2025-12-18T01:34:21.644256", "MEAN_MOTION": 2.00572958, "ECCENTRICITY": 0.00325491, "INCLINATION": 55.2322, "RA_OF_ASC_NODE": 95.6864, "ARG_OF_PERICENTER": 120.0469, "MEAN_ANOMALY": 240.2601, "EPHEMERIS_TYPE": 0, "CLASSIFICATION_TYPE": "U", "NORAD_CAT_ID": 40105, "ELEMENT_SET_NO": 999, "REV_AT_EPOCH": 8244, "BSTAR": 0, "MEAN_MOTION_DOT": -3.8e-07, "MEAN_MOTION_DDOT": 0}, "tle": {"line1": "1 40105U 14045A   25352.06552829 -.00000038  00000+0  00000+0 0  9998", "line2": "2 40105  55.2322  95.6864 0032549 120.0469 240.2601  2.00572958 82445"}}, "geometry": {"type": "Point", "coordinates": [164.76969631984082, 53.42894137684951]}}, {"type": "Feature", "properties": {"norad_id": 40128, "name": "GSAT0201 (GALILEO 5)", "group": "gnss", "lat": 48.89700778392161, "lon": 3.962980013824583, "alt_km": 20596.031932668495, "timestamp": "2025-12-21T03:56:51.082480+00:00", "meta": {"OBJECT_NAME": "GSAT0201 (GALILEO 5)", "OBJECT_ID": "2014-050A", "EPOCH": "2025-12-18T20:33:33.240672", "MEAN_MOTION": 1.85519721, "ECCENTRICITY": 0.1648519, "INCLINATION": 49.0697, "RA_OF_ASC_NODE": 280.8143, "ARG_OF_PERICENTER": 172.5106, "MEAN_ANOMALY": 190.3447, "EPHEMERIS_TYPE": 0, "CLASSIFICATION_TYPE": "U", "NORAD_CAT_ID": 40128, "ELEMENT_SET_NO": 999, "REV_AT_EPOCH": 7497, "BSTAR": 0, "MEAN_MOTION_DOT": -5.8e-07, "MEAN_MOTION_DDOT": 0}, "tle": {"line1": "1 40128U 14050A   25352.85663473 -.00000058  00000+0  00000+0 0  9996", "line2": "2 40128  49.0697 280.8143 1648519 172.5106 190.3447  1.85519721 74978"}}, "geometry": {"type": "Point", "coordinates": [3.962980013824583, 48.89700778392161]}}, {"type": "Feature", "properties": {"norad_id": 40129, "name": "GSAT0202 (GALILEO 6)", "group": "gnss", "lat": -36.77802106618749, "lon": -120.54360004819313, "alt_km": 24392.448926932524, "timestamp": "2025-12-21T03:56:51.082489+00:00", "meta": {"OBJECT_NAME": "GSAT0202 (GALILEO 6)", "OBJECT_ID": "2014-050B", "EPOCH": "2025-12-18T13:46:22.484640", "MEAN_MOTION": 1.85520466, "ECCENTRICITY": 0.16491259, "INCLINATION": 49.0858, "RA_OF_ASC_NODE": 279.9095, "ARG_OF_PERICENTER": 173.2442, "MEAN_ANOMALY": 189.3393, "EPHEMERIS_TYPE": 0, "CLASSIFICATION_TYPE": "U", "NORAD_CAT_ID": 40129, "ELEMENT_SET_NO": 999, "REV_AT_EPOCH": 7713, "BSTAR": 0, "MEAN_MOTION_DOT": -5.9e-07, "MEAN_MOTION_DDOT": 0}, "tle": {"line1": "1 40129U 14050B   25352.57387135 -.00000059  00000+0  00000+0 0  9995", "line2": "2 40129  49.0858 279.9095 1649125 173.2442 189.3393  1.85520466 77135"}}, "geometry": {"type": "Point", "coordinates": [-120.54360004819313, -36.77802106618749]}}, {"type": "Feature", "properties": {"norad_id": 40269, "name": "IRNSS-1C", "group": "gnss", "lat": 3.8849577336027203, "lon": -127.51108569279664, "alt_km": 35842.44788362358, "timestamp": "2025-12-21T03:56:51.082501+00:00", "meta": {"OBJECT_NAME": "IRNSS-1C", "OBJECT_ID": "2014-061A", "EPOCH": "2025-12-20T19:46:51.350016", "MEAN_MOTION": 1.00273926, "ECCENTRICITY": 0.0018062, "INCLINATION": 6.0622, "RA_OF_ASC_NODE": 92.4601, "ARG_OF_PERICENTER": 1.212, "MEAN_ANOMALY": 15.682, "EPHEMERIS_TYPE": 0, "CLASSIFICATION_TYPE": "U", "NORAD_CAT_ID": 40269, "ELEMENT_SET_NO": 999, "REV_AT_EPOCH": 4090, "BSTAR": 0, "MEAN_MOTION_DOT": -1.43e-06, "MEAN_MOTION_DDOT": 0}, "tle": {"line1": "1 40269U 14061A   25354.82420544 -.00000143  00000+0  00000+0 0  9998", "line2": "2 40269   6.0622  92.4601 0018062   1.2120  15.6820  1.00273926 40909"}}, "geometry": {"type": "Point", "coordinates": [-127.51108569279664, 3.8849577336027203]}}, {"type": "Feature", "properties": {"norad_id": 40294, "name": "GPS BIIF-8  (PRN 03)", "group": "gnss", "lat": 10.867679323619784, "lon": -149.3590809532306, "alt_km": 20202.36910819798, "timestamp": "2025-12-21T03:56:51.082513+00:00", "meta": {"OBJECT_NAME": "GPS BIIF-8  (PRN 03)", "OBJECT_ID": "2014-068A", "EPOCH": "2025-12-20T10:28:39.196128", "MEAN_MOTION": 2.00565411, "ECCENTRICITY": 0.0060813, "INCLINATION": 56.8634, "RA_OF_ASC_NODE": 37.8483, "ARG_OF_PERICENTER": 69.0316, "MEAN_ANOMALY": 291.6877, "EPHEMERIS_TYPE": 0, "CLASSIFICATION_TYPE": "U", "NORAD_CAT_ID": 40294, "ELEMENT_SET_NO": 999, "REV_AT_EPOCH": 8162, "BSTAR": 0, "MEAN_MOTION_DOT": -5.6e-07, "MEAN_MOTION_DDOT": 0}, "tle": {"line1": "1 40294U 14068A   25354.43656477 -.00000056  00000+0  00000+0 0  9999", "line2": "2 40294  56.8634  37.8483 0060813  69.0316 291.6877  2.00565411 81620"}}, "geometry": {"type": "Point", "coordinates": [-149.3590809532306, 10.867679323619784]}}]}